[
    {
        "Altitude(m)": 605459.0616909763,
        "Argument of Periapsis(deg)": 0.0,
        "Eccentricity": 0.0,
        "Inclination(deg)": 60.0,
        "Latitude(deg)": 27.988320802907317,
        "Longitude(deg)": 62.79855136098843,
        "Mean Anomaly(deg)": 32.727299999999985,
        "RAAN(deg)": 145.0,
        "Satellite Name": "Test1 640",
        "Satellite Number": 640,
        "Semi-Major Axis(m)": 6980739.136638005,
        "Time(s)": 0
    },
    {
        "Altitude(m)": 605535.8532260526,
        "Argument of Periapsis(deg)": 0.00010418945913296404,
        "Eccentricity": 0.0,
        "Inclination(deg)": 60.0,
        "Latitude(deg)": 28.501450695539805,
        "Longitude(deg)": 63.15549607141445,
        "Mean Anomaly(deg)": 33.34740614546184,
        "RAAN(deg)": 144.99957995086027,
        "Satellite Name": "Test1 640",
        "Satellite Number": 640,
        "Semi-Major Axis(m)": 6980739.136638005,
        "Time(s)": 10
    },
    {
        "Altitude(m)": 605614.3353701921,
        "Argument of Periapsis(deg)": 0.0002083789182659281,
        "Eccentricity": 0.0,
        "Inclination(deg)": 60.0,
        "Latitude(deg)": 29.013363063696964,
        "Longitude(deg)": 63.51630563639829,
        "Mean Anomaly(deg)": 33.967512290923665,
        "RAAN(deg)": 144.99915990172053,
        "Satellite Name": "Test1 640",
        "Satellite Number": 640,
        "Semi-Major Axis(m)": 6980739.136638005,
        "Time(s)": 20
    },
    {
        "Altitude(m)": 605694.4504310383,
        "Argument of Periapsis(deg)": 0.00031256837739889213,
        "Eccentricity": 0.0,
        "Inclination(deg)": 60.0,
        "Latitude(deg)": 29.52402063440707,
        "Longitude(deg)": 63.88109181251071,
        "Mean Anomaly(deg)": 34.5876184363855,
        "RAAN(deg)": 144.99873985258077,
        "Satellite Name": "Test1 640",
        "Satellite Number": 640,
        "Semi-Major Axis(m)": 6980739.136638005,
        "Time(s)": 30
    },
    {
        "Altitude(m)": 605776.1401068884,
        "Argument of Periapsis(deg)": 0.0004167578365318562,
        "Eccentricity": 0.0,
        "Inclination(deg)": 60.0,
        "Latitude(deg)": 30.03338513822041,
        "Longitude(deg)": 64.24996936265703,
        "Mean Anomaly(deg)": 35.20772458184732,
        "RAAN(deg)": 144.99831980344103,
        "Satellite Name": "Test1 640",
        "Satellite Number": 640,
        "Semi-Major Axis(m)": 6980739.136638005,
        "Time(s)": 40
    },
    {
        "Altitude(m)": 605859.3455170313,
        "Argument of Periapsis(deg)": 0.0005209472956648203,
        "Eccentricity": 0.0,
        "Inclination(deg)": 60.0,
        "Latitude(deg)": 30.541417270473385,
        "Longitude(deg)": 64.623055114893,
        "Mean Anomaly(deg)": 35.82783072730915,
        "RAAN(deg)": 144.9978997543013,
        "Satellite Name": "Test1 640",
        "Satellite Number": 640,
        "Semi-Major Axis(m)": 6980739.136638005,
        "Time(s)": 50
    },
    {
        "Altitude(m)": 605944.0072323399,
        "Argument of Periapsis(deg)": 0.0006251367547977843,
        "Eccentricity": 0.0,
        "Inclination(deg)": 60.0,
        "Latitude(deg)": 31.048076651196386,
        "Longitude(deg)": 65.0004685342899,
        "Mean Anomaly(deg)": 36.447936872770974,
        "RAAN(deg)": 144.99747970516157,
        "Satellite Name": "Test1 640",
        "Satellite Number": 640,
        "Semi-Major Axis(m)": 6980739.136638005,
        "Time(s)": 60
    },
    {
        "Altitude(m)": 606030.0653060714,
        "Argument of Periapsis(deg)": 0.0007293262139307483,
        "Eccentricity": 0.0,
        "Inclination(deg)": 60.0,
        "Latitude(deg)": 31.55332178362306,
        "Longitude(deg)": 65.38233229481088,
        "Mean Anomaly(deg)": 37.06804301823281,
        "RAAN(deg)": 144.9970596560218,
        "Satellite Name": "Test1 640",
        "Satellite Number": 640,
        "Semi-Major Axis(m)": 6980739.136638005,
        "Time(s)": 70
    },
    {
        "Altitude(m)": 606117.459304867,
        "Argument of Periapsis(deg)": 0.0008335156730637124,
        "Eccentricity": 0.0,
        "Inclination(deg)": 60.0,
        "Latitude(deg)": 32.05711001125939,
        "Longitude(deg)": 65.76877133814027,
        "Mean Anomaly(deg)": 37.68814916369463,
        "RAAN(deg)": 144.99663960688207,
        "Satellite Name": "Test1 640",
        "Satellite Number": 640,
        "Semi-Major Axis(m)": 6980739.136638005,
        "Time(s)": 80
    },
    {
        "Altitude(m)": 606206.1283399493,
        "Argument of Periapsis(deg)": 0.0009377051321966765,
        "Eccentricity": 0.0,
        "Inclination(deg)": 60.0,
        "Latitude(deg)": 32.559397473476466,
        "Longitude(deg)": 66.15991344500532,
        "Mean Anomaly(deg)": 38.30825530915646,
        "RAAN(deg)": 144.99621955774234,
        "Satellite Name": "Test1 640",
        "Satellite Number": 640,
        "Semi-Major Axis(m)": 6980739.136638005,
        "Time(s)": 90
    },
    {
        "Altitude(m)": 606296.0110984818,
        "Argument of Periapsis(deg)": 0.0010418945913296407,
        "Eccentricity": 0.0,
        "Inclination(deg)": 60.0,
        "Latitude(deg)": 33.06013905958608,
        "Longitude(deg)": 66.55588980588482,
        "Mean Anomaly(deg)": 38.92836145461828,
        "RAAN(deg)": 144.9957995086026,
        "Satellite Name": "Test1 640",
        "Satellite Number": 640,
        "Semi-Major Axis(m)": 6980739.136638005,
        "Time(s)": 100
    },
    {
        "Altitude(m)": 606387.0458750739,
        "Argument of Periapsis(deg)": 0.0011460840504626045,
        "Eccentricity": 0.0,
        "Inclination(deg)": 60.0,
        "Latitude(deg)": 33.559288361361695,
        "Longitude(deg)": 66.95683407796481,
        "Mean Anomaly(deg)": 39.54846760008014,
        "RAAN(deg)": 144.99537945946284,
        "Satellite Name": "Test1 640",
        "Satellite Number": 640,
        "Semi-Major Axis(m)": 6980739.136638005,
        "Time(s)": 110
    },
    {
        "Altitude(m)": 606479.1706034668,
        "Argument of Periapsis(deg)": 0.0012502735095955685,
        "Eccentricity": 0.0,
        "Inclination(deg)": 60.0,
        "Latitude(deg)": 34.05679762397076,
        "Longitude(deg)": 67.36288295380146,
        "Mean Anomaly(deg)": 40.16857374554196,
        "RAAN(deg)": 144.9949594103231,
        "Satellite Name": "Test1 640",
        "Satellite Number": 640,
        "Semi-Major Axis(m)": 6980739.136638005,
        "Time(s)": 120
    },
    {
        "Altitude(m)": 606572.3228882713,
        "Argument of Periapsis(deg)": 0.0013544629687285324,
        "Eccentricity": 0.0,
        "Inclination(deg)": 60.0,
        "Latitude(deg)": 34.55261769528447,
        "Longitude(deg)": 67.77417672848891,
        "Mean Anomaly(deg)": 40.788679891003795,
        "RAAN(deg)": 144.99453936118337,
        "Satellite Name": "Test1 640",
        "Satellite Number": 640,
        "Semi-Major Axis(m)": 6980739.136638005,
        "Time(s)": 130
    },
    {
        "Altitude(m)": 606666.440036889,
        "Argument of Periapsis(deg)": 0.0014586524278614966,
        "Eccentricity": 0.0,
        "Inclination(deg)": 60.0,
        "Latitude(deg)": 35.046697973531785,
        "Longitude(deg)": 68.19085835209606,
        "Mean Anomaly(deg)": 41.40878603646562,
        "RAAN(deg)": 144.99411931204364,
        "Satellite Name": "Test1 640",
        "Satellite Number": 640,
        "Semi-Major Axis(m)": 6980739.136638005,
        "Time(s)": 140
    },
    {
        "Altitude(m)": 606761.4590914664,
        "Argument of Periapsis(deg)": 0.0015628418869944607,
        "Eccentricity": 0.0,
        "Inclination(deg)": 60.0,
        "Latitude(deg)": 35.538986353272804,
        "Longitude(deg)": 68.61307399272037,
        "Mean Anomaly(deg)": 42.02889218192745,
        "RAAN(deg)": 144.99369926290387,
        "Satellite Name": "Test1 640",
        "Satellite Number": 640,
        "Semi-Major Axis(m)": 6980739.136638005,
        "Time(s)": 150
    },
    {
        "Altitude(m)": 606857.3168609543,
        "Argument of Periapsis(deg)": 0.0016670313461274247,
        "Eccentricity": 0.0,
        "Inclination(deg)": 60.0,
        "Latitude(deg)": 36.029429169665434,
        "Longitude(deg)": 69.04097359684043,
        "Mean Anomaly(deg)": 42.64899832738928,
        "RAAN(deg)": 144.99327921376414,
        "Satellite Name": "Test1 640",
        "Satellite Number": 640,
        "Semi-Major Axis(m)": 6980739.136638005,
        "Time(s)": 160
    },
    {
        "Altitude(m)": 606953.949953223,
        "Argument of Periapsis(deg)": 0.0017712208052603888,
        "Eccentricity": 0.0,
        "Inclination(deg)": 60.0,
        "Latitude(deg)": 36.517971141004196,
        "Longitude(deg)": 69.47470993360115,
        "Mean Anomaly(deg)": 43.26910447285113,
        "RAAN(deg)": 144.9928591646244,
        "Satellite Name": "Test1 640",
        "Satellite Number": 640,
        "Semi-Major Axis(m)": 6980739.136638005,
        "Time(s)": 170
    },
    {
        "Altitude(m)": 607051.294807218,
        "Argument of Periapsis(deg)": 0.001875410264393353,
        "Eccentricity": 0.0,
        "Inclination(deg)": 60.0,
        "Latitude(deg)": 37.004555309518075,
        "Longitude(deg)": 69.91443914824195,
        "Mean Anomaly(deg)": 43.88921061831296,
        "RAAN(deg)": 144.99243911548467,
        "Satellite Name": "Test1 640",
        "Satellite Number": 640,
        "Semi-Major Axis(m)": 6980739.136638005,
        "Time(s)": 180
    },
    {
        "Altitude(m)": 607149.2877251334,
        "Argument of Periapsis(deg)": 0.0019795997235263173,
        "Eccentricity": 0.0,
        "Inclination(deg)": 60.0,
        "Latitude(deg)": 37.48912298041738,
        "Longitude(deg)": 70.36032131119903,
        "Mean Anomaly(deg)": 44.509316763774784,
        "RAAN(deg)": 144.99201906634488,
        "Satellite Name": "Test1 640",
        "Satellite Number": 640,
        "Semi-Major Axis(m)": 6980739.136638005,
        "Time(s)": 190
    }
]